OBJECT_NAME,OBJECT_ID,EPOCH,MEAN_MOTION,ECCENTRICITY,INCLINATION,RA_OF_ASC_NODE,ARG_OF_PERICENTER,MEAN_ANOMALY,EPHEMERIS_TYPE,CLASSIFICATION_TYPE,NORAD_CAT_ID,ELEMENT_SET_NO,REV_AT_EPOCH,BSTAR,MEAN_MOTION_DOT,MEAN_MOTION_DDOT
GALAXY 33 (G-33),2022-128A,2026-06-14T03:44:38.702400,1.00270934,.0001597,0.0117,338.5469,107.6213,99.4585,0,U,54026,999,1371,0,.88E-6,0
GALAXY 34 (G-34),2022-128B,2026-06-13T17:40:21.665568,1.00275311,.00015307,0.0115,29.5169,67.3543,301.2703,0,U,54027,999,1387,0,.69E-6,0
ANGOSAT 2,2022-131A,2026-06-13T23:31:37.945056,1.00271685,.0001119,0.0320,78.9173,38.9375,160.3480,0,U,54033,999,1344,0,.145E-5,0
EUTELSAT HOTBIRD 13F,2022-134A,2026-06-14T01:11:30.147936,1.00271305,.0002041,0.0487,293.2403,60.2338,299.7684,0,U,54048,999,1334,0,.96E-6,0
LDPE-2,2022-144A,2026-06-13T13:26:32.959680,1.00530497,.00018354,5.6041,63.6804,105.1995,133.7489,0,U,54219,999,1180,0,.138E-5,0
EUTELSAT HOTBIRD 13G,2022-146A,2026-06-13T14:55:30.273888,1.00271640,.00018698,0.0497,229.4542,318.9715,310.3925,0,U,54225,999,743,0,.98E-6,0
ZHONGXING-19,2022-148A,2026-06-14T03:37:02.298720,1.00270633,.0002212,0.0247,351.8872,119.3521,8.6633,0,U,54230,999,1335,0,0,0
GALAXY 31 (G-31),2022-153A,2026-06-14T03:36:38.531808,1.00270193,.0000973,0.0195,13.1462,62.8336,119.6246,0,U,54243,999,710,0,0,0
GALAXY 32 (G-32),2022-153B,2026-06-13T14:25:37.455744,1.00271032,.0001981,0.0146,26.6441,6.1350,354.5447,0,U,54244,999,1310,0,-.163E-5,0
EUTELSAT 10B,2022-157A,2026-06-14T04:35:55.389984,1.00266128,.0001368,0.0632,99.9704,14.3756,227.1424,0,U,54259,999,1299,0,.76E-6,0
GALAXY 35 (G-35),2022-170A,2026-06-14T04:06:35.916192,1.00269341,.0001771,0.0195,359.4874,86.5785,144.9519,0,U,54741,999,1286,0,0,0
GALAXY 36 (G-36),2022-170B,2026-06-14T04:07:43.309056,1.00271107,.0002475,0.0420,125.7235,317.7191,151.9705,0,U,54742,999,1274,0,-.176E-5,0
METEOSAT-12 (MTG-I1),2022-170C,2026-06-14T04:33:03.166272,1.00271990,.0003143,0.7347,22.4374,72.1271,235.7711,0,U,54743,999,1294,0,0,0
SHIJIAN-23 (SJ-23),2023-002A,2026-06-13T16:59:37.877856,1.00088336,.0003794,3.7083,78.3558,271.7420,317.2385,0,U,55131,999,1247,0,-.224E-5,0
APSTAR-6E,2023-005A,2026-06-14T05:11:21.992928,1.00270809,.0000986,0.0336,252.3724,319.8776,262.1322,0,U,55239,999,1866,0,-.309E-5,0
USA 342,2023-008A,2026-06-12T15:01:23.172096,1.00272733,.0000206,0.0059,338.0459,258.5222,273.5711,0,U,55263,999,1247,0,0,0
LDPE-3A,2023-008B,2026-06-14T03:20:38.837760,0.99144765,.0001084,2.3397,81.6999,65.3341,68.9031,0,U,55264,999,1178,0,.7E-7,0
ELEKTRO-L 4,2023-016A,2026-06-13T19:28:18.410880,1.00270555,.0000722,0.0728,169.1265,5.3182,185.5613,0,U,55506,999,1230,0,-.48E-6,0
AMAZONAS NEXUS,2023-017A,2026-06-13T19:42:25.751232,1.00270955,.00049736,0.0382,35.8415,29.0680,71.8382,0,U,55508,999,701,0,-.272E-5,0
ZHONGXING-26,2023-023A,2026-06-14T00:00:35.169120,1.00272976,.000326,0.0684,71.0668,15.1921,301.3056,0,U,55686,999,1219,0,-.344E-5,0
LUCH-5X (OLYMP-K 2),2023-031A,2026-06-13T17:16:48.425088,1.00270613,.0000663,0.0260,57.4593,161.4113,4.3436,0,U,55841,999,1190,0,.44E-6,0
GAOFEN-13 02,2023-036A,2026-06-14T02:28:48.158688,1.00271034,.0004131,1.0198,0.7225,335.4226,111.7668,0,U,55912,999,1206,0,-.21E-5,0
SES-18,2023-038A,2026-06-14T04:03:43.690752,1.00270973,.0000256,0.0173,297.9753,354.4206,287.9124,0,U,55970,999,1207,0,-.92E-6,0
SES-19,2023-038B,2026-06-14T03:44:38.702400,1.00270262,.0001377,0.0095,340.8336,98.7934,104.0978,0,U,55971,999,1206,0,.97E-6,0
INTELSAT 40E (IS-40E),2023-052A,2026-06-13T14:25:37.455744,1.00271684,.00018421,0.0150,41.2245,85.1314,260.9697,0,U,56174,999,1178,0,-.163E-5,0
VIASAT-3 F1,2023-060A,2026-06-13T22:59:44.463264,1.00270620,.0000845,0.0242,335.9098,97.2581,85.0616,0,U,56370,999,1140,0,0,0
ARCTURUS,2023-060B,2026-06-14T01:28:28.522272,1.00272263,.0002476,2.7678,79.9894,47.4400,229.5432,0,U,56371,999,1142,0,-.56E-6,0
GS-1,2023-060C,2026-06-13T20:19:35.865696,1.00275569,.00038436,2.7178,79.8739,282.3702,294.1673,0,U,56372,999,750,0,-.216E-5,0
BEIDOU-3 G4,2023-066A,2026-06-14T05:12:59.337216,1.00274690,.0004293,0.4903,330.6492,182.1009,328.0177,0,U,56564,999,1136,0,-.272E-5,0
ARABSAT-7B (BADR-8),2023-075A,2026-06-14T02:57:51.823008,1.00269870,.0004427,0.0767,28.3502,354.5406,310.0084,0,U,56757,999,1108,0,.153E-5,0
NVS-01 (IRNSS-1J),2023-076A,2026-06-14T00:02:05.025120,1.00266167,.0003194,2.1737,244.5024,36.6815,111.1614,0,U,56759,999,1108,0,-.324E-5,0
NUSANTARA TIGA (SATRIA),2023-086A,2026-06-13T14:59:38.885568,1.00268124,.00032537,0.0354,349.2310,358.6374,284.9819,0,U,57045,999,972,0,-.224E-5,0
